ISS (ZARYA)             
1 25544U 98067A   26192.18582566  .00005410  00000+0  10636-3 0  9999
2 25544  51.6302 181.3206 0006688 281.9973  78.0266 15.48977198575473
