{"fetched_at":"2026-07-11T09:24:07.374Z","source":"https://celestrak.org/NORAD/elements/gp.php?GROUP=stations&FORMAT=JSON","constellation":"iss","records":[{"OBJECT_NAME":"ISS (ZARYA)","OBJECT_ID":"1998-067A","EPOCH":"2026-07-11T04:27:35.337024","CLASSIFICATION_TYPE":"U","MEAN_MOTION":15.48977198,"ECCENTRICITY":0.0006688,"INCLINATION":51.6302,"RA_OF_ASC_NODE":181.3206,"ARG_OF_PERICENTER":281.9973,"MEAN_ANOMALY":78.0266,"EPHEMERIS_TYPE":0,"NORAD_CAT_ID":25544,"ELEMENT_SET_NO":999,"REV_AT_EPOCH":57547,"BSTAR":0.00010636,"MEAN_MOTION_DOT":0.0000541,"MEAN_MOTION_DDOT":0}]}
